[{"OBJECT_NAME":"STARLINK-30763","OBJECT_ID":"2023-166P","EPOCH":"2026-03-09T15:41:28.640544","MEAN_MOTION":15.30186508,"ECCENTRICITY":0.00012852,"INCLINATION":53.1606,"RA_OF_ASC_NODE":207.2059,"ARG_OF_PERICENTER":82.005,"MEAN_ANOMALY":278.1096,"EPHEMERIS_TYPE":0,"CLASSIFICATION_TYPE":"U","NORAD_CAT_ID":58163,"ELEMENT_SET_NO":999,"REV_AT_EPOCH":13334,"BSTAR":4.3178314e-5,"MEAN_MOTION_DOT":9.19e-6,"MEAN_MOTION_DDOT":0},{"OBJECT_NAME":"ION SCV-017","OBJECT_ID":"2025-052W","EPOCH":"2026-03-09T17:11:44.577024","MEAN_MOTION":15.26881798,"ECCENTRICITY":0.0023746,"INCLINATION":97.4016,"RA_OF_ASC_NODE":324.7516,"ARG_OF_PERICENTER":44.9875,"MEAN_ANOMALY":315.3282,"EPHEMERIS_TYPE":0,"CLASSIFICATION_TYPE":"U","NORAD_CAT_ID":63230,"ELEMENT_SET_NO":999,"REV_AT_EPOCH":5485,"BSTAR":0.00024539061,"MEAN_MOTION_DOT":6.457e-5,"MEAN_MOTION_DDOT":0}]
