STARLINK-30763          
1 58163U 23166P   26068.65380370  .00000919  00000+0  43178-4 0  9990
2 58163  53.1606 207.2059 0001285  82.0050 278.1096 15.30186508133346
ION SCV-017             
1 63230U 25052W   26068.71648816  .00006457  00000+0  24539-3 0  9998
2 63230  97.4016 324.7516 0023746  44.9875 315.3282 15.26881798 54851
